ONEWEB-0582             
1 54649U 22166H   26111.35890306  .00000109  00000+0  23198-3 0  9995
2 54649  87.9205 255.2906 0002082 111.8110 248.3245 13.21825876164018
ONEWEB-0583             
1 54650U 22166J   26111.37069287 -.00000010  00000+0 -56052-4 0  9994
2 54650  87.9208 255.3117 0001932 103.1902 256.9448 13.21827324164025
ONEWEB-0584             
1 54651U 22166K   26111.39087140  .00000001  00000+0 -27926-4 0  9992
2 54651  87.9206 255.2944 0001840 105.6843 254.4494 13.21828820164015
ONEWEB-0585             
1 54652U 22166L   26111.41440509  .00000099  00000+0  20806-3 0  9993
2 54652  87.9208 255.2743 0001826  94.1681 265.9662 13.21825545164027
ONEWEB-0586             
1 54653U 22166M   26111.35217359  .00000093  00000+0  19311-3 0  9995
2 54653  87.9204 255.3129 0001977 103.9426 256.1927 13.21823621164014
ONEWEB-0587             
1 54654U 22166N   26111.36227838  .00000109  00000+0  23359-3 0  9995
2 54654  87.9217 255.2790 0001781  87.9282 272.2055 13.21826664164174
ONEWEB-0589             
1 54655U 22166P   26111.34880828  .00000129  00000+0  28031-3 0  9992
2 54655  87.9202 255.3011 0002210 122.6687 237.4661 13.21823948164033
ONEWEB-0590             
1 54656U 22166Q   26111.37391831  .00000037  00000+0  57661-4 0  9997
2 54656  87.9217 255.2809 0001389 105.9629 254.1658 13.21826421164020
ONEWEB-0591             
1 54657U 22166R   26111.38583145  .00000029  00000+0  39592-4 0  9994
2 54657  87.9209 255.2975 0001770 100.4058 259.7275 13.21827290164050
ONEWEB-0592             
1 54658U 22166S   26111.38919341  .00000016  00000+0  77636-5 0  9994
2 54658  87.9217 255.2703 0001853  99.6832 260.4512 13.21826802163937
ONEWEB-0593             
1 54659U 22166T   26111.41104535  .00000082  00000+0  16688-3 0  9991
2 54659  87.9207 255.2816 0002026 101.7975 258.3387 13.21824641164046
ONEWEB-0594             
1 54660U 22166U   26111.35553594  .00000143  00000+0  31361-3 0  9992
2 54660  87.9205 255.3100 0001846  96.3660 263.7684 13.21823677164051
ONEWEB-0595             
1 54661U 22166V   26111.40768378  .00000117  00000+0  25096-3 0  9996
2 54661  87.9214 255.2753 0001747  94.6705 265.4628 13.21824165164034
ONEWEB-0596             
1 54662U 22166W   26111.38246751  .00000067  00000+0  13152-3 0  9994
2 54662  87.9207 255.2958 0001771  96.8178 263.3157 13.21827221164039
ONEWEB-0597             
1 54663U 22166X   26111.36396628  .00000020  00000+0  17605-4 0  9999
2 54663  87.9208 255.3036 0001924 102.5037 257.6312 13.21826347164035
ONEWEB-0600             
1 54664U 22166Y   26111.42114144  .00000002  00000+0 -26206-4 0  9996
2 54664  87.9207 255.2829 0002092  98.6197 261.5174 13.21824134164013
