[{"OBJECT_NAME":"ONEWEB-0582","OBJECT_ID":"2022-166H","EPOCH":"2026-04-21T08:36:49.224384","MEAN_MOTION":13.21825876,"ECCENTRICITY":0.0002082,"INCLINATION":87.9205,"RA_OF_ASC_NODE":255.2906,"ARG_OF_PERICENTER":111.811,"MEAN_ANOMALY":248.3245,"EPHEMERIS_TYPE":0,"CLASSIFICATION_TYPE":"U","NORAD_CAT_ID":54649,"ELEMENT_SET_NO":999,"REV_AT_EPOCH":16401,"BSTAR":0.00023197999999999998,"MEAN_MOTION_DOT":1.09e-06,"MEAN_MOTION_DDOT":0.0},{"OBJECT_NAME":"ONEWEB-0583","OBJECT_ID":"2022-166J","EPOCH":"2026-04-21T08:53:47.863968","MEAN_MOTION":13.21827324,"ECCENTRICITY":0.0001932,"INCLINATION":87.9208,"RA_OF_ASC_NODE":255.3117,"ARG_OF_PERICENTER":103.1902,"MEAN_ANOMALY":256.9448,"EPHEMERIS_TYPE":0,"CLASSIFICATION_TYPE":"U","NORAD_CAT_ID":54650,"ELEMENT_SET_NO":999,"REV_AT_EPOCH":16402,"BSTAR":-5.6052000000000005e-05,"MEAN_MOTION_DOT":-1e-07,"MEAN_MOTION_DDOT":0.0},{"OBJECT_NAME":"ONEWEB-0584","OBJECT_ID":"2022-166K","EPOCH":"2026-04-21T09:22:51.288960","MEAN_MOTION":13.2182882,"ECCENTRICITY":0.000184,"INCLINATION":87.9206,"RA_OF_ASC_NODE":255.2944,"ARG_OF_PERICENTER":105.6843,"MEAN_ANOMALY":254.4494,"EPHEMERIS_TYPE":0,"CLASSIFICATION_TYPE":"U","NORAD_CAT_ID":54651,"ELEMENT_SET_NO":999,"REV_AT_EPOCH":16401,"BSTAR":-2.7926000000000003e-05,"MEAN_MOTION_DOT":1e-08,"MEAN_MOTION_DDOT":0.0},{"OBJECT_NAME":"ONEWEB-0585","OBJECT_ID":"2022-166L","EPOCH":"2026-04-21T09:56:44.599776","MEAN_MOTION":13.21825545,"ECCENTRICITY":0.0001826,"INCLINATION":87.9208,"RA_OF_ASC_NODE":255.2743,"ARG_OF_PERICENTER":94.1681,"MEAN_ANOMALY":265.9662,"EPHEMERIS_TYPE":0,"CLASSIFICATION_TYPE":"U","NORAD_CAT_ID":54652,"ELEMENT_SET_NO":999,"REV_AT_EPOCH":16402,"BSTAR":0.00020806,"MEAN_MOTION_DOT":9.9e-07,"MEAN_MOTION_DDOT":0.0},{"OBJECT_NAME":"ONEWEB-0586","OBJECT_ID":"2022-166M","EPOCH":"2026-04-21T08:27:07.798176","MEAN_MOTION":13.21823621,"ECCENTRICITY":0.0001977,"INCLINATION":87.9204,"RA_OF_ASC_NODE":255.3129,"ARG_OF_PERICENTER":103.9426,"MEAN_ANOMALY":256.1927,"EPHEMERIS_TYPE":0,"CLASSIFICATION_TYPE":"U","NORAD_CAT_ID":54653,"ELEMENT_SET_NO":999,"REV_AT_EPOCH":16401,"BSTAR":0.00019311,"MEAN_MOTION_DOT":9.3e-07,"MEAN_MOTION_DDOT":0.0},{"OBJECT_NAME":"ONEWEB-0587","OBJECT_ID":"2022-166N","EPOCH":"2026-04-21T08:41:40.852032","MEAN_MOTION":13.21826664,"ECCENTRICITY":0.0001781,"INCLINATION":87.9217,"RA_OF_ASC_NODE":255.279,"ARG_OF_PERICENTER":87.9282,"MEAN_ANOMALY":272.2055,"EPHEMERIS_TYPE":0,"CLASSIFICATION_TYPE":"U","NORAD_CAT_ID":54654,"ELEMENT_SET_NO":999,"REV_AT_EPOCH":16417,"BSTAR":0.00023359,"MEAN_MOTION_DOT":1.09e-06,"MEAN_MOTION_DDOT":0.0},{"OBJECT_NAME":"ONEWEB-0589","OBJECT_ID":"2022-166P","EPOCH":"2026-04-21T08:22:17.035392","MEAN_MOTION":13.21823948,"ECCENTRICITY":0.000221,"INCLINATION":87.9202,"RA_OF_ASC_NODE":255.3011,"ARG_OF_PERICENTER":122.6687,"MEAN_ANOMALY":237.4661,"EPHEMERIS_TYPE":0,"CLASSIFICATION_TYPE":"U","NORAD_CAT_ID":54655,"ELEMENT_SET_NO":999,"REV_AT_EPOCH":16403,"BSTAR":0.00028031000000000003,"MEAN_MOTION_DOT":1.29e-06,"MEAN_MOTION_DDOT":0.0},{"OBJECT_NAME":"ONEWEB-0590","OBJECT_ID":"2022-166Q","EPOCH":"2026-04-21T08:58:26.541984","MEAN_MOTION":13.21826421,"ECCENTRICITY":0.0001389,"INCLINATION":87.9217,"RA_OF_ASC_NODE":255.2809,"ARG_OF_PERICENTER":105.9629,"MEAN_ANOMALY":254.1658,"EPHEMERIS_TYPE":0,"CLASSIFICATION_TYPE":"U","NORAD_CAT_ID":54656,"ELEMENT_SET_NO":999,"REV_AT_EPOCH":16402,"BSTAR":5.7660999999999996e-05,"MEAN_MOTION_DOT":3.7e-07,"MEAN_MOTION_DDOT":0.0},{"OBJECT_NAME":"ONEWEB-0591","OBJECT_ID":"2022-166R","EPOCH":"2026-04-21T09:15:35.837280","MEAN_MOTION":13.2182729,"ECCENTRICITY":0.000177,"INCLINATION":87.9209,"RA_OF_ASC_NODE":255.2975,"ARG_OF_PERICENTER":100.4058,"MEAN_ANOMALY":259.7275,"EPHEMERIS_TYPE":0,"CLASSIFICATION_TYPE":"U","NORAD_CAT_ID":54657,"ELEMENT_SET_NO":999,"REV_AT_EPOCH":16405,"BSTAR":3.9592e-05,"MEAN_MOTION_DOT":2.9e-07,"MEAN_MOTION_DDOT":0.0},{"OBJECT_NAME":"ONEWEB-0592","OBJECT_ID":"2022-166S","EPOCH":"2026-04-21T09:20:26.310624","MEAN_MOTION":13.21826802,"ECCENTRICITY":0.0001853,"INCLINATION":87.9217,"RA_OF_ASC_NODE":255.2703,"ARG_OF_PERICENTER":99.6832,"MEAN_ANOMALY":260.4512,"EPHEMERIS_TYPE":0,"CLASSIFICATION_TYPE":"U","NORAD_CAT_ID":54658,"ELEMENT_SET_NO":999,"REV_AT_EPOCH":16393,"BSTAR":7.763600000000001e-06,"MEAN_MOTION_DOT":1.6e-07,"MEAN_MOTION_DDOT":0.0},{"OBJECT_NAME":"ONEWEB-0593","OBJECT_ID":"2022-166T","EPOCH":"2026-04-21T09:51:54.318240","MEAN_MOTION":13.21824641,"ECCENTRICITY":0.0002026,"INCLINATION":87.9207,"RA_OF_ASC_NODE":255.2816,"ARG_OF_PERICENTER":101.7975,"MEAN_ANOMALY":258.3387,"EPHEMERIS_TYPE":0,"CLASSIFICATION_TYPE":"U","NORAD_CAT_ID":54659,"ELEMENT_SET_NO":999,"REV_AT_EPOCH":16404,"BSTAR":0.00016688,"MEAN_MOTION_DOT":8.2e-07,"MEAN_MOTION_DDOT":0.0},{"OBJECT_NAME":"ONEWEB-0594","OBJECT_ID":"2022-166U","EPOCH":"2026-04-21T08:31:58.305216","MEAN_MOTION":13.21823677,"ECCENTRICITY":0.0001846,"INCLINATION":87.9205,"RA_OF_ASC_NODE":255.31,"ARG_OF_PERICENTER":96.366,"MEAN_ANOMALY":263.7684,"EPHEMERIS_TYPE":0,"CLASSIFICATION_TYPE":"U","NORAD_CAT_ID":54660,"ELEMENT_SET_NO":999,"REV_AT_EPOCH":16405,"BSTAR":0.00031361000000000003,"MEAN_MOTION_DOT":1.43e-06,"MEAN_MOTION_DDOT":0.0},{"OBJECT_NAME":"ONEWEB-0595","OBJECT_ID":"2022-166V","EPOCH":"2026-04-21T09:47:03.878592","MEAN_MOTION":13.21824165,"ECCENTRICITY":0.0001747,"INCLINATION":87.9214,"RA_OF_ASC_NODE":255.2753,"ARG_OF_PERICENTER":94.6705,"MEAN_ANOMALY":265.4628,"EPHEMERIS_TYPE":0,"CLASSIFICATION_TYPE":"U","NORAD_CAT_ID":54661,"ELEMENT_SET_NO":999,"REV_AT_EPOCH":16403,"BSTAR":0.00025096,"MEAN_MOTION_DOT":1.17e-06,"MEAN_MOTION_DDOT":0.0},{"OBJECT_NAME":"ONEWEB-0596","OBJECT_ID":"2022-166W","EPOCH":"2026-04-21T09:10:45.192864","MEAN_MOTION":13.21827221,"ECCENTRICITY":0.0001771,"INCLINATION":87.9207,"RA_OF_ASC_NODE":255.2958,"ARG_OF_PERICENTER":96.8178,"MEAN_ANOMALY":263.3157,"EPHEMERIS_TYPE":0,"CLASSIFICATION_TYPE":"U","NORAD_CAT_ID":54662,"ELEMENT_SET_NO":999,"REV_AT_EPOCH":16403,"BSTAR":0.00013152,"MEAN_MOTION_DOT":6.7e-07,"MEAN_MOTION_DDOT":0.0},{"OBJECT_NAME":"ONEWEB-0597","OBJECT_ID":"2022-166X","EPOCH":"2026-04-21T08:44:06.686592","MEAN_MOTION":13.21826347,"ECCENTRICITY":0.0001924,"INCLINATION":87.9208,"RA_OF_ASC_NODE":255.3036,"ARG_OF_PERICENTER":102.5037,"MEAN_ANOMALY":257.6312,"EPHEMERIS_TYPE":0,"CLASSIFICATION_TYPE":"U","NORAD_CAT_ID":54663,"ELEMENT_SET_NO":999,"REV_AT_EPOCH":16403,"BSTAR":1.7605000000000002e-05,"MEAN_MOTION_DOT":2e-07,"MEAN_MOTION_DDOT":0.0},{"OBJECT_NAME":"ONEWEB-0600","OBJECT_ID":"2022-166Y","EPOCH":"2026-04-21T10:06:26.620416","MEAN_MOTION":13.21824134,"ECCENTRICITY":0.0002092,"INCLINATION":87.9207,"RA_OF_ASC_NODE":255.2829,"ARG_OF_PERICENTER":98.6197,"MEAN_ANOMALY":261.5174,"EPHEMERIS_TYPE":0,"CLASSIFICATION_TYPE":"U","NORAD_CAT_ID":54664,"ELEMENT_SET_NO":999,"REV_AT_EPOCH":16401,"BSTAR":-2.6206000000000003e-05,"MEAN_MOTION_DOT":2e-08,"MEAN_MOTION_DDOT":0.0}]